SENTINEL-5P             
1 42969U 17064A   26197.45352247  .00000010  00000+0  25784-4 0  9995
2 42969  98.7929 139.3777 0001152  93.3196 266.8111 14.19523387453711
