{"fetched_at":"2026-07-17T06:38:34.818Z","source":"https://celestrak.org/NORAD/elements/gp.php?NAME=SENTINEL&FORMAT=JSON","constellation":"sentinel-5p","records":[{"OBJECT_NAME":"SENTINEL-5P","OBJECT_ID":"2017-064A","EPOCH":"2026-07-16T10:53:04.341408","CLASSIFICATION_TYPE":"U","MEAN_MOTION":14.19523387,"ECCENTRICITY":0.0001152,"INCLINATION":98.7929,"RA_OF_ASC_NODE":139.3777,"ARG_OF_PERICENTER":93.3196,"MEAN_ANOMALY":266.8111,"EPHEMERIS_TYPE":0,"NORAD_CAT_ID":42969,"ELEMENT_SET_NO":999,"REV_AT_EPOCH":45371,"BSTAR":0.000025784,"MEAN_MOTION_DOT":1e-7,"MEAN_MOTION_DDOT":0}]}
